NORAD_CAT_ID,OBJECT_NAME,OBJECT_TYPE,EPOCH,MEAN_MOTION,ECCENTRICITY,INCLINATION,RA_OF_ASC_NODE,ARG_OF_PERICENTER,MEAN_ANOMALY,BSTAR,MEAN_MOTION_DOT,MEAN_MOTION_DDOT,TLE_LINE0,TLE_LINE1,TLE_LINE2,SEMIMAJOR_AXIS,PERIOD,APOGEE,PERIGEE,DECAYED
51864.0,STARLINK-3548,PAYLOAD,2023-04-30 02:40:35,15.08856146,0.0001492,53.2169,18.4133,74.3673,285.7484,0.00084836,0.00013245,0.0,0 STARLINK-3548,1 51864U 22022N   23120.11151780  .00013245  00000-0  84836-3 0  9991,2 51864  53.2169  18.4133 0001492  74.3673 285.7484 15.08856146 65461,6917.831,95.437,540.728,538.664,0.0
51864.0,STARLINK-3548,PAYLOAD,2023-04-30 21:45:13,15.08841647,0.0001359,53.2176,14.8462,71.9566,288.1574,0.00030682,4.599e-05,0.0,0 STARLINK-3548,1 51864U 22022N   23120.90640161  .00004599  00000-0  30682-3 0  9996,2 51864  53.2176  14.8462 0001359  71.9566 288.1574 15.08841647 65580,6917.875,95.437,540.68,538.8,0.0
51864.0,STARLINK-3548,PAYLOAD,2023-04-30 23:20:36,15.08845299,0.000126,53.2178,14.5461,86.8348,273.2788,0.00043617,6.662e-05,0.0,0 STARLINK-3548,1 51864U 22022N   23120.97264083  .00006662  00000-0  43617-3 0  9993,2 51864  53.2178  14.5461 0001260  86.8348 273.2788 15.08845299 65592,6917.864,95.437,540.601,538.858,0.0
51864.0,STARLINK-3548,PAYLOAD,2023-05-01 21:36:02,15.0875938,0.0001417,53.2177,10.3844,101.6175,258.4976,-0.001917,-0.000306,0.0,0 STARLINK-3548,1 51864U 22022N   23121.90002406 -.00030600  00000-0 -19170-2 0  9993,2 51864  53.2177  10.3844 0001417 101.6175 258.4976 15.08759380 65733,6918.127,95.443,540.972,539.012,0.0
51864.0,STARLINK-3548,PAYLOAD,2023-05-01 23:11:27,15.08677936,0.0001694,53.2176,10.0872,92.518,267.6006,-0.0040711,-0.00064218,0.0,0 STARLINK-3548,1 51864U 22022N   23121.96629081 -.00064218  00000-0 -40711-2 0  9990,2 51864  53.2176  10.0872 0001694  92.5180 267.6006 15.08677936 65744,6918.376,95.448,541.413,539.069,0.0
51864.0,STARLINK-3548,PAYLOAD,2023-05-02 02:22:16,15.08630306,0.0001863,53.2175,9.4924,108.7956,251.3239,-0.0048492,-0.00076211,0.0,0 STARLINK-3548,1 51864U 22022N   23122.09879669 -.00076211  00000-0 -48492-2 0  9994,2 51864  53.2175   9.4924 0001863 108.7956 251.3239 15.08630306 65762,6918.521,95.451,541.675,539.097,0.0
51864.0,STARLINK-3548,PAYLOAD,2023-05-02 19:51:56,15.08271103,0.0001175,53.2179,6.2215,101.0109,259.1015,-0.0070246,-0.00108697,0.0,0 STARLINK-3548,1 51864U 22022N   23122.82773903 -.00108697  00000-0 -70246-2 0  9995,2 51864  53.2179   6.2215 0001175 101.0109 259.1015 15.08271103 65872,6919.62,95.474,542.298,540.672,0.0
51864.0,STARLINK-3548,PAYLOAD,2023-05-03 05:24:33,15.08166757,0.0001404,53.2166,4.4423,88.614,271.5012,-0.0062721,-0.00096968,0.0,0 STARLINK-3548,1 51864U 22022N   23123.22538371 -.00096968  00000-0 -62721-2 0  9994,2 51864  53.2166   4.4423 0001404  88.6140 271.5012 15.08166757 65939,6919.939,95.48,542.776,540.832,0.0
51864.0,STARLINK-3548,PAYLOAD,2023-05-03 08:35:25,15.08181015,0.000136,53.2166,3.8478,88.0015,272.1132,-0.0056069,-0.0008687,0.0,0 STARLINK-3548,1 51864U 22022N   23123.35793267 -.00086870  00000-0 -56069-2 0  9994,2 51864  53.2166   3.8478 0001360  88.0015 272.1132 15.08181015 65954,6919.895,95.479,542.701,540.819,0.0
51864.0,STARLINK-3548,PAYLOAD,2023-05-03 19:43:21,15.08290178,0.0004456,53.219,1.7623,136.6168,223.5175,-0.00028065,-4.686e-05,0.0,0 STARLINK-3548,1 51864U 22022N   23123.82177532 -.00004686  00000-0 -28065-3 0  9998,2 51864  53.2190   1.7623 0004456 136.6168 223.5175 15.08290178 66025,6919.561,95.472,544.51,538.343,0.0
51864.0,STARLINK-3548,PAYLOAD,2023-05-03 21:18:46,15.08320275,0.0001474,53.2183,1.4663,72.5884,287.5269,0.00075873,0.00011638,0.0,0 STARLINK-3548,1 51864U 22022N   23123.88803515  .00011638  00000-0  75873-3 0  9993,2 51864  53.2183   1.4663 0001474  72.5884 287.5269 15.08320275 66035,6919.469,95.47,542.354,540.315,0.0
51864.0,STARLINK-3548,PAYLOAD,2023-05-04 02:04:59,15.08394547,0.0002366,53.2178,0.5769,90.6594,269.4669,0.0027794,0.00043684,0.0,0 STARLINK-3548,1 51864U 22022N   23124.08680053  .00043684  00000-0  27794-2 0  9990,2 51864  53.2178   0.5769 0002366  90.6594 269.4669 15.08394547 66065,6919.242,95.466,542.744,539.47,0.0
51864.0,STARLINK-3548,PAYLOAD,2023-05-04 08:26:34,15.0853448,0.0001515,53.2175,359.3881,100.0189,260.0974,0.0059317,0.0009459,0.0,0 STARLINK-3548,1 51864U 22022N   23124.35178516  .00094590  00000-0  59317-2 0  9994,2 51864  53.2175 359.3881 0001515 100.0189 260.0974 15.08534480 66106,6918.814,95.457,541.728,539.631,0.0
51864.0,STARLINK-3548,PAYLOAD,2023-05-04 21:09:45,15.08630786,0.000158,53.2163,357.0105,94.2055,265.9118,0.0064141,0.00102694,0.0,0 STARLINK-3548,1 51864U 22022N   23124.88178153  .00102694  00000-0  64141-2 0  9995,2 51864  53.2163 357.0105 0001580  94.2055 265.9118 15.08630786 66183,6918.52,95.451,541.478,539.292,0.0
51864.0,STARLINK-3548,PAYLOAD,2023-05-04 22:45:08,15.08598376,0.0001604,53.2163,356.7132,98.1874,261.93,0.0055181,0.00088047,0.0,0 STARLINK-3548,1 51864U 22022N   23124.94801054  .00088047  00000-0  55181-2 0  9994,2 51864  53.2163 356.7132 0001604  98.1874 261.9300 15.08598376 66196,6918.619,95.453,541.594,539.374,0.0
51864.0,STARLINK-3548,PAYLOAD,2023-05-05 01:55:55,15.08620603,0.0001622,53.2164,356.1178,88.6417,271.4761,0.0053166,0.00084834,0.0,0 STARLINK-3548,1 51864U 22022N   23125.08050110  .00084834  00000-0  53166-2 0  9990,2 51864  53.2164 356.1178 0001622  88.6417 271.4761 15.08620603 66217,6918.551,95.451,541.538,539.294,0.0
51864.0,STARLINK-3548,PAYLOAD,2023-05-05 21:00:34,15.08754166,0.0001493,53.2167,352.5489,87.3836,272.7327,0.0026626,0.00042242,0.0,0 STARLINK-3548,1 51864U 22022N   23125.87540088  .00042242  00000-0  26626-2 0  9993,2 51864  53.2167 352.5489 0001493  87.3836 272.7327 15.08754166 66339,6918.143,95.443,541.041,538.975,0.0
51864.0,STARLINK-3548,PAYLOAD,2023-05-05 22:35:57,15.08763312,0.0001821,53.2167,352.2514,92.1408,267.9793,0.0025986,0.00041224,0.0,0 STARLINK-3548,1 51864U 22022N   23125.94164092  .00041224  00000-0  25986-2 0  9995,2 51864  53.2167 352.2514 0001821  92.1408 267.9793 15.08763312 66346,6918.115,95.442,541.24,538.72,0.0
51864.0,STARLINK-3548,PAYLOAD,2023-05-06 00:11:19,15.08807767,0.0001877,53.2164,351.9541,93.1507,266.97,0.0018462,0.00029191,0.0,0 STARLINK-3548,1 51864U 22022N   23126.00786266  .00029191  00000-0  18462-2 0  9996,2 51864  53.2164 351.9541 0001877  93.1507 266.9700 15.08807767 66352,6917.979,95.44,541.142,538.545,0.0
51864.0,STARLINK-3548,PAYLOAD,2023-05-07 00:02:04,15.08848038,0.0001757,53.2168,347.493,89.2167,270.9027,0.00017499,2.499e-05,0.0,0 STARLINK-3548,1 51864U 22022N   23127.00144102  .00002499  00000-0  17499-3 0  9996,2 51864  53.2168 347.4930 0001757  89.2167 270.9027 15.08848038 66503,6917.856,95.437,540.936,538.505,0.0
51864.0,STARLINK-3548,PAYLOAD,2023-05-07 20:42:05,15.08837304,0.0001543,53.2171,343.6239,96.1569,263.9599,3.0779e-05,2.02e-06,0.0,0 STARLINK-3548,1 51864U 22022N   23127.86256786  .00000202  00000-0  30779-4 0  9999,2 51864  53.2171 343.6239 0001543  96.1569 263.9599 15.08837304 66637,6917.889,95.438,540.821,538.686,0.0
51864.0,STARLINK-3548,PAYLOAD,2023-05-08 20:32:52,15.0885086,0.0001373,53.2168,339.1654,93.1152,266.9997,0.00020865,3.035e-05,0.0,0 STARLINK-3548,1 51864U 22022N   23128.85616232  .00003035  00000-0  20865-3 0  9996,2 51864  53.2168 339.1654 0001373  93.1152 266.9997 15.08850860 66783,6917.847,95.437,540.662,538.762,0.0
51864.0,STARLINK-3548,PAYLOAD,2023-05-09 12:26:44,15.08839911,0.0001258,53.2162,336.1925,93.6785,266.4351,0.00016197,2.291e-05,0.0,0 STARLINK-3548,1 51864U 22022N   23129.51856734  .00002291  00000-0  16197-3 0  9999,2 51864  53.2162 336.1925 0001258  93.6785 266.4351 15.08839911 66888,6917.881,95.438,540.616,538.875,0.0
51864.0,STARLINK-3548,PAYLOAD,2023-05-09 20:23:40,15.08838812,0.0001222,53.2165,334.7077,75.7945,284.3183,6.6021e-05,7.63e-06,0.0,0 STARLINK-3548,1 51864U 22022N   23129.84976915  .00000763  00000-0  66021-4 0  9993,2 51864  53.2165 334.7077 0001222  75.7945 284.3183 15.08838812 66930,6917.884,95.438,540.594,538.904,0.0
51864.0,STARLINK-3548,PAYLOAD,2023-05-10 20:14:27,15.08835355,0.0001103,53.2168,330.2461,82.3301,277.7816,-5.0437e-05,-1.09e-05,0.0,0 STARLINK-3548,1 51864U 22022N   23130.84337931 -.00001090  00000-0 -50437-4 0  9994,2 51864  53.2168 330.2461 0001103  82.3301 277.7816 15.08835355 67084,6917.895,95.438,540.523,538.997,0.0
51864.0,STARLINK-3548,PAYLOAD,2023-05-11 05:46:46,15.08839809,0.0001091,53.2169,328.4618,82.8218,277.2898,7.1312e-05,8.47e-06,0.0,0 STARLINK-3548,1 51864U 22022N   23131.24081891  .00000847  00000-0  71312-4 0  9992,2 51864  53.2169 328.4618 0001091  82.8218 277.2898 15.08839809 67146,6917.881,95.438,540.501,538.991,0.0
51864.0,STARLINK-3548,PAYLOAD,2023-05-11 20:05:14,15.08857557,9.6e-05,53.216,325.7866,75.396,284.7138,0.00046807,7.173e-05,0.0,0 STARLINK-3548,1 51864U 22022N   23131.83697127  .00007173  00000-0  46807-3 0  9991,2 51864  53.2160 325.7866 0000960  75.3960 284.7138 15.08857557 67237,6917.827,95.436,540.356,539.028,0.0
51864.0,STARLINK-3548,PAYLOAD,2023-05-12 18:20:38,15.08849041,8.99e-05,53.2164,321.6222,91.2406,268.8689,0.000137,1.894e-05,0.0,0 STARLINK-3548,1 51864U 22022N   23132.76433224  .00001894  00000-0  13700-3 0  9990,2 51864  53.2164 321.6222 0000899  91.2406 268.8689 15.08849041 67373,6917.853,95.437,540.34,539.096,0.0
51864.0,STARLINK-3548,PAYLOAD,2023-05-13 05:28:20,15.08848712,8.34e-05,53.2158,319.5425,78.6777,281.4309,6.4708e-05,7.43e-06,0.0,0 STARLINK-3548,1 51864U 22022N   23133.22801019  .00000743  00000-0  64708-4 0  9990,2 51864  53.2158 319.5425 0000834  78.6777 281.4309 15.08848712 67448,6917.854,95.437,540.296,539.142,0.0
51864.0,STARLINK-3548,PAYLOAD,2023-05-13 19:46:48,15.08843101,8.15e-05,53.2152,316.8682,98.3069,261.8016,0.00017089,2.433e-05,0.0,0 STARLINK-3548,1 51864U 22022N   23133.82417127  .00002433  00000-0  17089-3 0  9996,2 51864  53.2152 316.8682 0000815  98.3069 261.8016 15.08843101 67533,6917.871,95.437,540.3,539.172,0.0
